ORBCOMM FM37            
1 33064U 08031E   25019.88263178  .00004686  00000+0  65916-3 0  9991
2 33064  48.4407 328.2063 0005600  94.2253 302.5409 14.78742111892092
ORBCOMM FM40            
1 33065U 08031F   25019.87431341  .00005408  00000+0  72216-3 0  9994
2 33065  48.4423 314.6203 0007045 106.7883 296.3398 14.80710313892177
VESSELSAT 1             
1 37840U 11058C   25019.90784696  .00000498  00000+0  12719-3 0  9996
2 37840  19.9619 271.0993 0013619 355.9796   4.0498 14.11296264685330
ORBCOMM FM109           
1 40086U 14040A   25019.95871213  .00002117  00000+0  49593-3 0  9993
2 40086  47.0051 356.1344 0002066 353.0375   7.0481 14.57700261559432
ORBCOMM FM107           
1 40087U 14040B   25019.30837992  .00001600  00000+0  38335-3 0  9997
2 40087  47.0067   0.2175 0002096 312.9138  47.1571 14.57763250559413
ORBCOMM FM106           
1 40088U 14040C   25019.84142968  .00003030  00000+0  54536-3 0  9999
2 40088  47.0579 191.5784 0016525 100.6448 259.6304 14.68728919561669
ORBCOMM FM111           
1 40089U 14040D   25019.53151920  .00005236  00000+0  62904-3 0  9992
2 40089  47.0023  62.9141 0030692 204.3047 155.6403 14.84821307568126
ORBCOMM FM104           
1 40090U 14040E   25020.09631252  .00001679  00000+0  41335-3 0  9990
2 40090  47.0062  28.3523 0017334 250.7182 109.1828 14.56219635559134
